{
    "links": {
        "self": "http://www.neowsapp.com/rest/v1/neo/3541754?api_key=iIulBulltgU6a56xZRHN4H3l9WmuAYTsLGpBGhQ2"
    },
    "id": "3541754",
    "neo_reference_id": "3541754",
    "name": "(2010 PQ2)",
    "designation": "2010 PQ2",
    "nasa_jpl_url": "http://ssd.jpl.nasa.gov/sbdb.cgi?sstr=3541754",
    "absolute_magnitude_h": 24.5,
    "estimated_diameter": {
        "kilometers": {
            "estimated_diameter_min": 0.0334622374,
            "estimated_diameter_max": 0.0748238376
        },
        "meters": {
            "estimated_diameter_min": 33.4622374455,
            "estimated_diameter_max": 74.8238376074
        },
        "miles": {
            "estimated_diameter_min": 0.0207924639,
            "estimated_diameter_max": 0.0464933628
        },
        "feet": {
            "estimated_diameter_min": 109.7842471007,
            "estimated_diameter_max": 245.4850393757
        }
    },
    "is_potentially_hazardous_asteroid": false,
    "close_approach_data": [
        {
            "close_approach_date": "1909-09-23",
            "close_approach_date_full": "1909-Sep-23 08:06",
            "epoch_date_close_approach": -1902066840000,
            "relative_velocity": {
                "kilometers_per_second": "17.5215900932",
                "kilometers_per_hour": "63077.7243356474",
                "miles_per_hour": "39194.0448795583"
            },
            "miss_distance": {
                "astronomical": "0.3958651266",
                "lunar": "153.9915342474",
                "kilometers": "59220579.746640342",
                "miles": "36797961.9103950396"
            },
            "orbiting_body": "Earth"
        },
        {
            "close_approach_date": "2010-08-01",
            "close_approach_date_full": "2010-Aug-01 12:26",
            "epoch_date_close_approach": 1280665560000,
            "relative_velocity": {
                "kilometers_per_second": "6.1706308329",
                "kilometers_per_hour": "22214.270998512",
                "miles_per_hour": "13803.0841101587"
            },
            "miss_distance": {
                "astronomical": "0.039097559",
                "lunar": "15.208950451",
                "kilometers": "5848911.54859933",
                "miles": "3634345.109477554"
            },
            "orbiting_body": "Earth"
        }
    ],
    "orbital_data": {
        "orbit_id": "19",
        "orbit_determination_date": "2017-04-06 08:57:02",
        "first_observation_date": "2010-08-03",
        "last_observation_date": "2010-09-15",
        "data_arc_in_days": 43,
        "observations_used": 80,
        "orbit_uncertainty": "7",
        "minimum_orbit_intersection": ".0380804",
        "jupiter_tisserand_invariant": "3.662",
        "epoch_osculation": "2459000.5",
        "eccentricity": ".4809112571195339",
        "semi_major_axis": "2.026140510112445",
        "inclination": "1.945893175260241",
        "ascending_node_longitude": "312.0792995577119",
        "orbital_period": "1053.422927833026",
        "perihelion_distance": "1.051746730293455",
        "perihelion_argument": "3.261053048363393",
        "aphelion_distance": "3.000534289931435",
        "perihelion_time": "2458575.899184277535",
        "mean_anomaly": "145.1043921879742",
        "mean_motion": ".341743083891812",
        "equinox": "J2000",
        "orbit_class": {
            "orbit_class_type": "AMO",
            "orbit_class_description": "Near-Earth asteroid orbits similar to that of 1221 Amor",
            "orbit_class_range": "1.017 AU < q (perihelion) < 1.3 AU"
        }
    },
    "is_sentry_object": false
}